0 OPS 4682 DEB
1 38383U 65027CL  13294.64193995  .00000035  00000-0  10000-3 0   533
2 38383 090.2884 253.6429 0030911 014.8490 345.6920 12.95326429499890
